ORBCOMM FM05            
1 25117U 97084F   25261.48261197  .00001126  00000+0  35182-3 0  9999
2 25117  45.0145 280.0218 0004334 298.1305  61.9108 14.46208135454114
ORBCOMM FM06            
1 25118U 97084G   25261.48956392  .00001254  00000+0  38600-3 0  9998
2 25118  45.0138 279.6208 0003433 289.9960 194.7407 14.46356195455033
ORBCOMM FM07            
1 25119U 97084H   25261.47886421  .00001181  00000+0  36600-3 0  9990
2 25119  45.0133 280.4352 0005163 299.5108  60.5228 14.46364720455025
ORBCOMM FM03            
1 25158U 98007B   25261.91137536  .00000875  00000+0  35193-3 0  9999
2 25158 107.9648 328.1670 0042744  85.3787 275.2233 14.34695370437486
ORBCOMM FM04            
1 25159U 98007C   25261.87952861  .00000816  00000+0  33012-3 0  9994
2 25159 107.9633 331.3850 0038461  82.7121 277.8389 14.34940750437666
ORBCOMM FM17            
1 25413U 98046A   25261.18976277  .00000787  00000+0  32149-3 0  9998
2 25413  44.9937 178.6293 0004351 326.0767  33.9801 14.35256109416532
ORBCOMM FM18            
1 25414U 98046B   25260.98559648  .00000954  00000+0  35362-3 0  9991
2 25414  44.9923  94.4927 0004857  38.9939 321.1259 14.38772580417616
ORBCOMM FM19            
1 25415U 98046C   25261.50368109  .00000980  00000+0  36339-3 0  9995
2 25415  44.9935  94.1774 0003588  38.9383 339.0230 14.38586429417645
